format  = 'OEF1.1'       ! file format
rectype = 'ML'           ! record type (1L/ML)
refsys  = ECLM J2000     ! default reference system
END_OF_HEADER
410777
! Equinoctial elements: a, e*sin(LP), e*cos(LP), tan(i/2)*sin(LN), tan(i/2)*cos(LN), mean long.
 EQU   1.16267296532696E+00  -0.460663787149893   0.174881277291140    0.004551542480933    0.027004980226847  25.7135001289037
 MJD     56013.440131620 TDT
 MAG  22.130  0.150
! RMS    2.04185E-09   3.16794E-08   6.08065E-08   6.78702E-09   5.56062E-08   6.08870E-06
! EIG   3.19829E-10   3.77761E-09   1.30692E-08   2.33856E-08   5.58635E-08   1.23626E-07
! WEA   0.00272  -0.23241   0.46139   0.00157   0.03830   0.85535
 COV   4.169162701043839E-18 -1.575613095247293E-17  5.410558529866873E-17
 COV   2.152240948132489E-18 -9.031385169561095E-18  8.884898855419340E-16
 COV   1.003581986244237E-15 -1.541881189719501E-15  3.003470624508290E-17
 COV  -3.099241892348508E-16 -1.738565027899039E-13  3.697434392752590E-15
 COV   6.490030078113178E-17 -7.073003849329925E-18  3.340752601130692E-13
 COV   4.606360963780009E-17  1.905728985028579E-16 -4.279273760580620E-16
 COV   3.092046688674574E-15  2.664964672746937E-14  3.707226110912469E-11
 NOR   9.651481524731505E+18  6.768856270706134E+17 -6.796850344075229E+17
 NOR   1.097599830124688E+17  9.610409045856248E+15  9.062369656042902E+15
 NOR   5.617325196682769E+16 -4.601854955571240E+16 -6.412826238343329E+15
 NOR   2.206948159407462E+15  6.602451178273214E+14  5.035122539431070E+16
 NOR  -1.574921120663447E+16  1.206500486267548E+14 -6.535286385660412E+14
 NOR   6.651283311730663E+16 -5.439260899254842E+15  1.138966593927292E+14
 NOR   8.360785526839552E+14  8.368481587875975E+12  8.790657650278620E+12
